start=new Date('2022-09-07T00:00:00.000Z').valueOf();
sats=[{"OBJECT_NAME":"STARLINK-2648","MEAN_MOTION":"15.06392250","ECCENTRICITY":"0.00017010","TIME_SYSTEM":"UTC","SEMIMAJOR_AXIS":"6925.372","ELEMENT_SET_NO":"999","MEAN_ELEMENT_THEORY":"SGP4","NORAD_CAT_ID":"48679","INCLINATION":"53.0558","EPOCH":"2022-09-06T19:55:34.743072","LAUNCH_DATE":"2021-05-26","TLE_LINE2":"2 48679  53.0558  97.1458 0001701  93.8478 266.2706 15.06392250 70946","APOAPSIS":"548.415","RA_OF_ASC_NODE":"97.1458","ARG_OF_PERICENTER":"93.8478","REV_AT_EPOCH":"7094","PERIOD":"95.593","SITE":"AFETR","CENTER_NAME":"EARTH","MEAN_MOTION_DDOT":"0.0000000000000","OBJECT_TYPE":"PAYLOAD","PERIAPSIS":"546.059","TLE_LINE1":"1 48679U 21044AT  22249.83026323 -.00004351  00000-0 -27345-3 0  9990","COUNTRY_CODE":"US","RCS_SIZE":"LARGE","FILE":"3561419","CLASSIFICATION_TYPE":"U","EPHEMERIS_TYPE":"0","GP_ID":"211920309","BSTAR":"-0.00027345000000","MEAN_ANOMALY":"266.2706","REF_FRAME":"TEME","MEAN_MOTION_DOT":"-0.00004351","OBJECT_ID":"2021-044AT","DECAY_DATE":null},{"OBJECT_TYPE":"PAYLOAD","TLE_LINE1":"1 48680U 21044AU  22249.82657691 -.00001736  00000-0 -97743-4 0  9993","PERIAPSIS":"546.216","COUNTRY_CODE":"US","RCS_SIZE":"LARGE","CLASSIFICATION_TYPE":"U","FILE":"3561419","EPHEMERIS_TYPE":"0","BSTAR":"-0.00009774300000","GP_ID":"211921062","MEAN_ANOMALY":"266.0955","REF_FRAME":"TEME","OBJECT_ID":"2021-044AU","MEAN_MOTION_DOT":"-0.00001736","DECAY_DATE":null,"OBJECT_NAME":"STARLINK-2649","ECCENTRICITY":"0.00015130","MEAN_MOTION":"15.06383478","TIME_SYSTEM":"UTC","SEMIMAJOR_AXIS":"6925.399","ELEMENT_SET_NO":"999","INCLINATION":"53.0548","MEAN_ELEMENT_THEORY":"SGP4","NORAD_CAT_ID":"48680","LAUNCH_DATE":"2021-05-26","EPOCH":"2022-09-06T19:50:16.245024","TLE_LINE2":"2 48680  53.0548  97.1621 0001513  94.0207 266.0955 15.06383478 70949","APOAPSIS":"548.312","RA_OF_ASC_NODE":"97.1621","SITE":"AFETR","CENTER_NAME":"EARTH","PERIOD":"95.593","ARG_OF_PERICENTER":"94.0207","REV_AT_EPOCH":"7094","MEAN_MOTION_DDOT":"0.0000000000000"},{"OBJECT_TYPE":"PAYLOAD","TLE_LINE1":"1 48681U 21044AV  22249.75932705 -.00002861  00000-0 -17330-3 0  9991","PERIAPSIS":"546.170","COUNTRY_CODE":"US","RCS_SIZE":"LARGE","CLASSIFICATION_TYPE":"U","FILE":"3561078","EPHEMERIS_TYPE":"0","BSTAR":"-0.00017330000000","GP_ID":"211891104","MEAN_ANOMALY":"253.4198","REF_FRAME":"TEME","OBJECT_ID":"2021-044AV","MEAN_MOTION_DOT":"-0.00002861","DECAY_DATE":null,"OBJECT_NAME":"STARLINK-2725","ECCENTRICITY":"0.00015710","MEAN_MOTION":"15.06385654","TIME_SYSTEM":"UTC","ELEMENT_SET_NO":"999","SEMIMAJOR_AXIS":"6925.393","INCLINATION":"53.0566","MEAN_ELEMENT_THEORY":"SGP4","NORAD_CAT_ID":"48681","EPOCH":"2022-09-06T18:13:25.857120","LAUNCH_DATE":"2021-05-26","TLE_LINE2":"2 48681  53.0566  67.6881 0001571 106.6963 253.4198 15.06385654 72245","APOAPSIS":"548.346","RA_OF_ASC_NODE":"67.6881","CENTER_NAME":"EARTH","SITE":"AFETR","PERIOD":"95.593","ARG_OF_PERICENTER":"106.6963","REV_AT_EPOCH":"7224","MEAN_MOTION_DDOT":"0.0000000000000"},{"MEAN_MOTION":"15.06348266","ECCENTRICITY":"0.00014650","OBJECT_NAME":"STARLINK-2743","MEAN_ELEMENT_THEORY":"SGP4","NORAD_CAT_ID":"48682","INCLINATION":"53.0546","SEMIMAJOR_AXIS":"6925.507","ELEMENT_SET_NO":"999","TIME_SYSTEM":"UTC","APOAPSIS":"548.387","TLE_LINE2":"2 48682  53.0546  56.9148 0001465  68.1457  80.8209 15.06348266  1305","EPOCH":"2022-09-06T22:00:00.999936","LAUNCH_DATE":"2021-05-26","MEAN_MOTION_DDOT":"0.0000000000000","REV_AT_EPOCH":"130","ARG_OF_PERICENTER":"68.1457","PERIOD":"95.595","SITE":"AFETR","CENTER_NAME":"EARTH","RA_OF_ASC_NODE":"56.9148","COUNTRY_CODE":"US","PERIAPSIS":"546.358","TLE_LINE1":"1 48682U 21044AW  22249.91667824  .00054160  00000-0  36321-2 0  9994","OBJECT_TYPE":"PAYLOAD","FILE":"3561419","CLASSIFICATION_TYPE":"U","RCS_SIZE":"LARGE","MEAN_ANOMALY":"80.8209","GP_ID":"211919562","BSTAR":"0.00363210000000","EPHEMERIS_TYPE":"0","DECAY_DATE":null,"MEAN_MOTION_DOT":"0.00054160","OBJECT_ID":"2021-044AW","REF_FRAME":"TEME"},{"RA_OF_ASC_NODE":"57.3863","SITE":"AFETR","PERIOD":"95.593","CENTER_NAME":"EARTH","REV_AT_EPOCH":"7233","ARG_OF_PERICENTER":"76.7320","MEAN_MOTION_DDOT":"0.0000000000000","EPOCH":"2022-09-06T18:41:15.255456","LAUNCH_DATE":"2021-05-26","TLE_LINE2":"2 48683  53.0557  57.3863 0001499  76.7320 283.3837 15.06387242 72333","APOAPSIS":"548.291","TIME_SYSTEM":"UTC","SEMIMAJOR_AXIS":"6925.388","ELEMENT_SET_NO":"999","INCLINATION":"53.0557","MEAN_ELEMENT_THEORY":"SGP4","NORAD_CAT_ID":"48683","OBJECT_NAME":"STARLINK-2756","ECCENTRICITY":"0.00014990","MEAN_MOTION":"15.06387242","REF_FRAME":"TEME","OBJECT_ID":"2021-044AX","MEAN_MOTION_DOT":"-0.00002739","DECAY_DATE":null,"EPHEMERIS_TYPE":"0","BSTAR":"-0.00016511000000","GP_ID":"211891129","MEAN_ANOMALY":"283.3837","RCS_SIZE":"LARGE","CLASSIFICATION_TYPE":"U","FILE":"3561079","OBJECT_TYPE":"PAYLOAD","TLE_LINE1":"1 48683U 21044AX  22249.77864879 -.00002739  00000-0 -16511-3 0  9995","PERIAPSIS":"546.215","COUNTRY_CODE":"US"},{"MEAN_MOTION":"15.06385452","ECCENTRICITY":"0.00015120","OBJECT_NAME":"STARLINK-2741","MEAN_ELEMENT_THEORY":"SGP4","NORAD_CAT_ID":"48684","INCLINATION":"53.0547","SEMIMAJOR_AXIS":"6925.393","ELEMENT_SET_NO":"999","TIME_SYSTEM":"UTC","APOAPSIS":"548.305","TLE_LINE2":"2 48684  53.0547  72.9140 0001512  84.3467 275.7694 15.06385452 72176","LAUNCH_DATE":"2021-05-26","EPOCH":"2022-09-06T17:38:18.276864","MEAN_MOTION_DDOT":"0.0000000000000","ARG_OF_PERICENTER":"84.3467","REV_AT_EPOCH":"7217","CENTER_NAME":"EARTH","SITE":"AFETR","PERIOD":"95.593","RA_OF_ASC_NODE":"72.9140","COUNTRY_CODE":"US","PERIAPSIS":"546.211","TLE_LINE1":"1 48684U 21044AY  22249.73493376 -.00003155  00000-0 -19310-3 0  9995","OBJECT_TYPE":"PAYLOAD","FILE":"3561059","CLASSIFICATION_TYPE":"U","RCS_SIZE":"LARGE","MEAN_ANOMALY":"275.7694","GP_ID":"211890193","BSTAR":"-0.00019310000000","EPHEMERIS_TYPE":"0","DECAY_DATE":null,"MEAN_MOTION_DOT":"-0.00003155","OBJECT_ID":"2021-044AY","REF_FRAME":"TEME"},{"ECCENTRICITY":"0.00013450","MEAN_MOTION":"15.06399096","OBJECT_NAME":"STARLINK-2751","INCLINATION":"53.0566","MEAN_ELEMENT_THEORY":"SGP4","NORAD_CAT_ID":"48685","TIME_SYSTEM":"UTC","SEMIMAJOR_AXIS":"6925.351","ELEMENT_SET_NO":"999","APOAPSIS":"548.148","EPOCH":"2022-09-06T17:58:47.821440","LAUNCH_DATE":"2021-05-26","TLE_LINE2":"2 48685  53.0566  57.5571 0001345  97.5237 262.5904 15.06399096 72335","CENTER_NAME":"EARTH","SITE":"AFETR","PERIOD":"95.592","ARG_OF_PERICENTER":"97.5237","REV_AT_EPOCH":"7233","MEAN_MOTION_DDOT":"0.0000000000000","RA_OF_ASC_NODE":"57.5571","COUNTRY_CODE":"US","OBJECT_TYPE":"PAYLOAD","TLE_LINE1":"1 48685U 21044AZ  22249.74916460 -.00001333  00000-0 -70601-4 0  9998","PERIAPSIS":"546.285","RCS_SIZE":"LARGE","CLASSIFICATION_TYPE":"U","FILE":"3561258","MEAN_ANOMALY":"262.5904","EPHEMERIS_TYPE":"0","BSTAR":"-0.00007060100000","GP_ID":"211895158","OBJECT_ID":"2021-044AZ","MEAN_MOTION_DOT":"-0.00001333","DECAY_DATE":null,"REF_FRAME":"TEME"},{"APOAPSIS":"548.222","LAUNCH_DATE":"2021-05-26","EPOCH":"2022-09-06T22:36:50.984064","TLE_LINE2":"2 48686  53.0553  61.9140 0001400  75.6280 284.4864 15.06387325 72341","REV_AT_EPOCH":"7234","ARG_OF_PERICENTER":"75.6280","CENTER_NAME":"EARTH","SITE":"AFETR","PERIOD":"95.593","MEAN_MOTION_DDOT":"0.0000000000000","RA_OF_ASC_NODE":"61.9140","MEAN_MOTION":"15.06387325","ECCENTRICITY":"0.00014000","OBJECT_NAME":"STARLINK-2629","NORAD_CAT_ID":"48686","MEAN_ELEMENT_THEORY":"SGP4","INCLINATION":"53.0553","TIME_SYSTEM":"UTC","SEMIMAJOR_AXIS":"6925.387","ELEMENT_SET_NO":"999","MEAN_ANOMALY":"284.4864","EPHEMERIS_TYPE":"0","GP_ID":"211924772","BSTAR":"-0.00019161000000","MEAN_MOTION_DOT":"-0.00003133","OBJECT_ID":"2021-044BA","DECAY_DATE":null,"REF_FRAME":"TEME","COUNTRY_CODE":"US","OBJECT_TYPE":"PAYLOAD","PERIAPSIS":"546.283","TLE_LINE1":"1 48686U 21044BA  22249.94225676 -.00003133  00000-0 -19161-3 0  9996","RCS_SIZE":"LARGE","FILE":"3561447","CLASSIFICATION_TYPE":"U"},{"MEAN_MOTION":"15.06385776","ECCENTRICITY":"0.00012620","OBJECT_NAME":"STARLINK-2627","MEAN_ELEMENT_THEORY":"SGP4","NORAD_CAT_ID":"48687","INCLINATION":"53.0544","TIME_SYSTEM":"UTC","SEMIMAJOR_AXIS":"6925.392","ELEMENT_SET_NO":"999","APOAPSIS":"548.131","LAUNCH_DATE":"2021-05-26","EPOCH":"2022-09-06T17:14:20.870304","TLE_LINE2":"2 48687  53.0544  52.6384 0001262  97.8073 262.3059 15.06385776 71552","ARG_OF_PERICENTER":"97.8073","REV_AT_EPOCH":"7155","CENTER_NAME":"EARTH","SITE":"AFETR","PERIOD":"95.593","MEAN_MOTION_DDOT":"0.0000000000000","RA_OF_ASC_NODE":"52.6384","COUNTRY_CODE":"US","OBJECT_TYPE":"PAYLOAD","PERIAPSIS":"546.383","TLE_LINE1":"1 48687U 21044BB  22249.71829711 -.00001753  00000-0 -98883-4 0  9997","RCS_SIZE":"LARGE","FILE":"3561419","CLASSIFICATION_TYPE":"U","MEAN_ANOMALY":"262.3059","EPHEMERIS_TYPE":"0","GP_ID":"211920310","BSTAR":"-0.00009888300000","MEAN_MOTION_DOT":"-0.00001753","OBJECT_ID":"2021-044BB","DECAY_DATE":null,"REF_FRAME":"TEME"},{"REF_FRAME":"TEME","OBJECT_ID":"2021-044BC","MEAN_MOTION_DOT":"-0.00003607","DECAY_DATE":null,"EPHEMERIS_TYPE":"0","BSTAR":"-0.00022346000000","GP_ID":"211897459","MEAN_ANOMALY":"262.9006","RCS_SIZE":"LARGE","CLASSIFICATION_TYPE":"U","FILE":"3561327","OBJECT_TYPE":"PAYLOAD","TLE_LINE1":"1 48688U 21044BC  22249.78832822 -.00003607  00000-0 -22346-3 0  9992","PERIAPSIS":"546.252","COUNTRY_CODE":"US","RA_OF_ASC_NODE":"52.3257","PERIOD":"95.593","SITE":"AFETR","CENTER_NAME":"EARTH","ARG_OF_PERICENTER":"97.2148","REV_AT_EPOCH":"7240","MEAN_MOTION_DDOT":"0.0000000000000","EPOCH":"2022-09-06T18:55:11.558208","LAUNCH_DATE":"2021-05-26","TLE_LINE2":"2 48688  53.0558  52.3257 0001454  97.2148 262.9006 15.06385080 72405","APOAPSIS":"548.266","TIME_SYSTEM":"UTC","SEMIMAJOR_AXIS":"6925.394","ELEMENT_SET_NO":"999","INCLINATION":"53.0558","MEAN_ELEMENT_THEORY":"SGP4","NORAD_CAT_ID":"48688","OBJECT_NAME":"STARLINK-2742","ECCENTRICITY":"0.00014540","MEAN_MOTION":"15.06385080"}];
